{
    "links": {
        "self": "http://www.neowsapp.com/rest/v1/neo/3340060?api_key=iIulBulltgU6a56xZRHN4H3l9WmuAYTsLGpBGhQ2"
    },
    "id": "3340060",
    "neo_reference_id": "3340060",
    "name": "(2006 QN111)",
    "designation": "2006 QN111",
    "nasa_jpl_url": "http://ssd.jpl.nasa.gov/sbdb.cgi?sstr=3340060",
    "absolute_magnitude_h": 23.8,
    "estimated_diameter": {
        "kilometers": {
            "estimated_diameter_min": 0.046190746,
            "estimated_diameter_max": 0.1032856481
        },
        "meters": {
            "estimated_diameter_min": 46.1907460282,
            "estimated_diameter_max": 103.2856480504
        },
        "miles": {
            "estimated_diameter_min": 0.0287015901,
            "estimated_diameter_max": 0.0641787064
        },
        "feet": {
            "estimated_diameter_min": 151.544447199,
            "estimated_diameter_max": 338.8636855496
        }
    },
    "is_potentially_hazardous_asteroid": false,
    "close_approach_data": [
        {
            "close_approach_date": "2006-08-21",
            "close_approach_date_full": "2006-Aug-21 09:41",
            "epoch_date_close_approach": 1156153260000,
            "relative_velocity": {
                "kilometers_per_second": "11.0240076982",
                "kilometers_per_hour": "39686.4277136384",
                "miles_per_hour": "24659.6028201772"
            },
            "miss_distance": {
                "astronomical": "0.0182800673",
                "lunar": "7.1109461797",
                "kilometers": "2734659.131536651",
                "miles": "1699238.3896057438"
            },
            "orbiting_body": "Earth"
        }
    ],
    "orbital_data": {
        "orbit_id": "7",
        "orbit_determination_date": "2017-04-06 09:08:12",
        "first_observation_date": "2006-08-27",
        "last_observation_date": "2006-09-03",
        "data_arc_in_days": 7,
        "observations_used": 14,
        "orbit_uncertainty": "9",
        "minimum_orbit_intersection": ".0084368",
        "jupiter_tisserand_invariant": "3.177",
        "epoch_osculation": "2453977.5",
        "eccentricity": ".5980511655248785",
        "semi_major_axis": "2.487536535470532",
        "inclination": "11.74684490050443",
        "ascending_node_longitude": "143.8390933298578",
        "orbital_period": "1433.021245193699",
        "perihelion_distance": ".9998624111466621",
        "perihelion_argument": "171.7708608458833",
        "aphelion_distance": "3.975210659794402",
        "perihelion_time": "2453959.308605266095",
        "mean_anomaly": "4.569996520407898",
        "mean_motion": ".2512174897667615",
        "equinox": "J2000",
        "orbit_class": {
            "orbit_class_type": "APO",
            "orbit_class_description": "Near-Earth asteroid orbits which cross the Earth’s orbit similar to that of 1862 Apollo",
            "orbit_class_range": "a (semi-major axis) > 1.0 AU; q (perihelion) < 1.017 AU"
        }
    },
    "is_sentry_object": false
}